[
    {
        "Altitude(m)": 569308.865913175,
        "Argument of Periapsis(deg)": 0.0,
        "Eccentricity": 0.0,
        "Inclination(deg)": 53.0,
        "Latitude(deg)": -46.773470322771985,
        "Longitude(deg)": -82.84482443344571,
        "Mean Anomaly(deg)": -65.45450000000001,
        "RAAN(deg)": 70.0,
        "Satellite Name": "Starlink Shell 1 326",
        "Satellite Number": 326,
        "Semi-Major Axis(m)": 6931778.249405717,
        "Time(s)": 0
    },
    {
        "Altitude(m)": 569184.7566555714,
        "Argument of Periapsis(deg)": 0.00034857847951123687,
        "Eccentricity": 0.0,
        "Inclination(deg)": 53.0,
        "Latitude(deg)": -46.46908184943491,
        "Longitude(deg)": -82.09310177493401,
        "Mean Anomaly(deg)": -64.8276687964433,
        "RAAN(deg)": 69.99948122992251,
        "Satellite Name": "Starlink Shell 1 326",
        "Satellite Number": 326,
        "Semi-Major Axis(m)": 6931778.249405717,
        "Time(s)": 10
    },
    {
        "Altitude(m)": 569058.2223343323,
        "Argument of Periapsis(deg)": 0.0006971569590224737,
        "Eccentricity": 0.0,
        "Inclination(deg)": 53.0,
        "Latitude(deg)": -46.159236326060444,
        "Longitude(deg)": -81.35022898520593,
        "Mean Anomaly(deg)": -64.20083759288654,
        "RAAN(deg)": 69.99896245984506,
        "Satellite Name": "Starlink Shell 1 326",
        "Satellite Number": 326,
        "Semi-Major Axis(m)": 6931778.249405717,
        "Time(s)": 20
    },
    {
        "Altitude(m)": 568929.3129201403,
        "Argument of Periapsis(deg)": 0.0010457354385337105,
        "Eccentricity": 0.0,
        "Inclination(deg)": 53.0,
        "Latitude(deg)": -45.8440510984263,
        "Longitude(deg)": -80.61616449962838,
        "Mean Anomaly(deg)": -63.57400638932983,
        "RAAN(deg)": 69.99844368976757,
        "Satellite Name": "Starlink Shell 1 326",
        "Satellite Number": 326,
        "Semi-Major Axis(m)": 6931778.249405717,
        "Time(s)": 30
    },
    {
        "Altitude(m)": 568798.0792919279,
        "Argument of Periapsis(deg)": 0.0013943139180449475,
        "Eccentricity": 0.0,
        "Inclination(deg)": 53.0,
        "Latitude(deg)": -45.523642240394345,
        "Longitude(deg)": -79.89085840484238,
        "Mean Anomaly(deg)": -62.947175185773055,
        "RAAN(deg)": 69.99792491969009,
        "Satellite Name": "Starlink Shell 1 326",
        "Satellite Number": 326,
        "Semi-Major Axis(m)": 6931778.249405717,
        "Time(s)": 40
    },
    {
        "Altitude(m)": 568664.5732145647,
        "Argument of Periapsis(deg)": 0.0017428923975561844,
        "Eccentricity": 0.0,
        "Inclination(deg)": 53.0,
        "Latitude(deg)": -45.198124464843396,
        "Longitude(deg)": -79.17425396616262,
        "Mean Anomaly(deg)": -62.32034398221642,
        "RAAN(deg)": 69.99740614961263,
        "Satellite Name": "Starlink Shell 1 326",
        "Satellite Number": 326,
        "Semi-Major Axis(m)": 6931778.249405717,
        "Time(s)": 50
    },
    {
        "Altitude(m)": 568528.8473161446,
        "Argument of Periapsis(deg)": 0.002091470877067421,
        "Eccentricity": 0.0,
        "Inclination(deg)": 53.0,
        "Latitude(deg)": -44.86761104374661,
        "Longitude(deg)": -78.46628762989323,
        "Mean Anomaly(deg)": -61.69351277865976,
        "RAAN(deg)": 69.99688737953515,
        "Satellite Name": "Starlink Shell 1 326",
        "Satellite Number": 326,
        "Semi-Major Axis(m)": 6931778.249405717,
        "Time(s)": 60
    },
    {
        "Altitude(m)": 568390.955064866,
        "Argument of Periapsis(deg)": 0.0024400493565786582,
        "Eccentricity": 0.0,
        "Inclination(deg)": 53.0,
        "Latitude(deg)": -44.53221373701096,
        "Longitude(deg)": -77.76688901197052,
        "Mean Anomaly(deg)": -61.06668157510293,
        "RAAN(deg)": 69.99636860945768,
        "Satellite Name": "Starlink Shell 1 326",
        "Satellite Number": 326,
        "Semi-Major Axis(m)": 6931778.249405717,
        "Time(s)": 70
    },
    {
        "Altitude(m)": 568250.9507455513,
        "Argument of Periapsis(deg)": 0.002788627836089895,
        "Eccentricity": 0.0,
        "Inclination(deg)": 53.0,
        "Latitude(deg)": -44.192042729680274,
        "Longitude(deg)": -77.07598238457601,
        "Mean Anomaly(deg)": -60.43985037154629,
        "RAAN(deg)": 69.99584983938021,
        "Satellite Name": "Starlink Shell 1 326",
        "Satellite Number": 326,
        "Semi-Major Axis(m)": 6931778.249405717,
        "Time(s)": 80
    },
    {
        "Altitude(m)": 568108.8894357808,
        "Argument of Periapsis(deg)": 0.0031372063156011316,
        "Eccentricity": 0.0,
        "Inclination(deg)": 53.0,
        "Latitude(deg)": -43.84720657709168,
        "Longitude(deg)": -76.39348663395101,
        "Mean Anomaly(deg)": -59.813019167989566,
        "RAAN(deg)": 69.99533106930274,
        "Satellite Name": "Starlink Shell 1 326",
        "Satellite Number": 326,
        "Semi-Major Axis(m)": 6931778.249405717,
        "Time(s)": 90
    },
    {
        "Altitude(m)": 567964.8269816554,
        "Argument of Periapsis(deg)": 0.0034857847951123688,
        "Eccentricity": 0.0,
        "Inclination(deg)": 53.0,
        "Latitude(deg)": -43.49781215757321,
        "Longitude(deg)": -75.7193152014817,
        "Mean Anomaly(deg)": -59.18618796443281,
        "RAAN(deg)": 69.99481229922526,
        "Satellite Name": "Starlink Shell 1 326",
        "Satellite Number": 326,
        "Semi-Major Axis(m)": 6931778.249405717,
        "Time(s)": 100
    },
    {
        "Altitude(m)": 567818.8199732254,
        "Argument of Periapsis(deg)": 0.003834363274623606,
        "Eccentricity": 0.0,
        "Inclination(deg)": 53.0,
        "Latitude(deg)": -43.1439646322645,
        "Longitude(deg)": -75.05337752030539,
        "Mean Anomaly(deg)": -58.55935676087615,
        "RAAN(deg)": 69.9942935291478,
        "Satellite Name": "Starlink Shell 1 326",
        "Satellite Number": 326,
        "Semi-Major Axis(m)": 6931778.249405717,
        "Time(s)": 110
    },
    {
        "Altitude(m)": 567670.9257195395,
        "Argument of Periapsis(deg)": 0.004182941754134842,
        "Eccentricity": 0.0,
        "Inclination(deg)": 53.0,
        "Latitude(deg)": -42.785767411643874,
        "Longitude(deg)": -74.39557892123383,
        "Mean Anomaly(deg)": -57.932525557319394,
        "RAAN(deg)": 69.99377475907032,
        "Satellite Name": "Starlink Shell 1 326",
        "Satellite Number": 326,
        "Semi-Major Axis(m)": 6931778.249405717,
        "Time(s)": 120
    },
    {
        "Altitude(m)": 567521.2022234196,
        "Argument of Periapsis(deg)": 0.004531520233646079,
        "Eccentricity": 0.0,
        "Inclination(deg)": 53.0,
        "Latitude(deg)": -42.42332212835191,
        "Longitude(deg)": -73.74582052057802,
        "Mean Anomaly(deg)": -57.30569435376268,
        "RAAN(deg)": 69.99325598899284,
        "Satellite Name": "Starlink Shell 1 326",
        "Satellite Number": 326,
        "Semi-Major Axis(m)": 6931778.249405717,
        "Time(s)": 130
    },
    {
        "Altitude(m)": 567369.7081558382,
        "Argument of Periapsis(deg)": 0.0048800987131573164,
        "Eccentricity": 0.0,
        "Inclination(deg)": 53.0,
        "Latitude(deg)": -42.0567286159036,
        "Longitude(deg)": -73.10400060259035,
        "Mean Anomaly(deg)": -56.67886315020598,
        "RAAN(deg)": 69.99273721891538,
        "Satellite Name": "Starlink Shell 1 326",
        "Satellite Number": 326,
        "Semi-Major Axis(m)": 6931778.249405717,
        "Time(s)": 140
    },
    {
        "Altitude(m)": 567216.5028300564,
        "Argument of Periapsis(deg)": 0.005228677192668553,
        "Eccentricity": 0.0,
        "Inclination(deg)": 53.0,
        "Latitude(deg)": -41.686084892893376,
        "Longitude(deg)": -72.47001447074851,
        "Mean Anomaly(deg)": -56.052031946649215,
        "RAAN(deg)": 69.9922184488379,
        "Satellite Name": "Starlink Shell 1 326",
        "Satellite Number": 326,
        "Semi-Major Axis(m)": 6931778.249405717,
        "Time(s)": 150
    },
    {
        "Altitude(m)": 567061.6461754163,
        "Argument of Periapsis(deg)": 0.00557725567217979,
        "Eccentricity": 0.0,
        "Inclination(deg)": 53.0,
        "Latitude(deg)": -41.311487152304956,
        "Longitude(deg)": -71.8437542808368,
        "Mean Anomaly(deg)": -55.42520074309255,
        "RAAN(deg)": 69.99169967876043,
        "Satellite Name": "Starlink Shell 1 326",
        "Satellite Number": 326,
        "Semi-Major Axis(m)": 6931778.249405717,
        "Time(s)": 160
    },
    {
        "Altitude(m)": 566905.1987108522,
        "Argument of Periapsis(deg)": 0.0059258341516910265,
        "Eccentricity": 0.0,
        "Inclination(deg)": 53.0,
        "Latitude(deg)": -40.93302975555175,
        "Longitude(deg)": -71.22511036888203,
        "Mean Anomaly(deg)": -54.7983695395358,
        "RAAN(deg)": 69.99118090868296,
        "Satellite Name": "Starlink Shell 1 326",
        "Satellite Number": 326,
        "Semi-Major Axis(m)": 6931778.249405717,
        "Time(s)": 170
    },
    {
        "Altitude(m)": 566747.2215181311,
        "Argument of Periapsis(deg)": 0.006274412631202263,
        "Eccentricity": 0.0,
        "Inclination(deg)": 53.0,
        "Latitude(deg)": -40.55080523088511,
        "Longitude(deg)": -70.61397104846021,
        "Mean Anomaly(deg)": -54.171538335979136,
        "RAAN(deg)": 69.99066213860549,
        "Satellite Name": "Starlink Shell 1 326",
        "Satellite Number": 326,
        "Semi-Major Axis(m)": 6931778.249405717,
        "Time(s)": 180
    }
]